{
    "links": {
        "self": "http://www.neowsapp.com/rest/v1/neo/3753918?api_key=iIulBulltgU6a56xZRHN4H3l9WmuAYTsLGpBGhQ2"
    },
    "id": "3753918",
    "neo_reference_id": "3753918",
    "name": "(2016 LW47)",
    "designation": "2016 LW47",
    "nasa_jpl_url": "http://ssd.jpl.nasa.gov/sbdb.cgi?sstr=3753918",
    "absolute_magnitude_h": 22.5,
    "estimated_diameter": {
        "kilometers": {
            "estimated_diameter_min": 0.0840533402,
            "estimated_diameter_max": 0.1879489824
        },
        "meters": {
            "estimated_diameter_min": 84.0533402073,
            "estimated_diameter_max": 187.9489824394
        },
        "miles": {
            "estimated_diameter_min": 0.0522283081,
            "estimated_diameter_max": 0.1167860472
        },
        "feet": {
            "estimated_diameter_min": 275.7655606856,
            "estimated_diameter_max": 616.6305395464
        }
    },
    "is_potentially_hazardous_asteroid": false,
    "close_approach_data": [
        {
            "close_approach_date": "2016-05-24",
            "close_approach_date_full": "2016-May-24 07:34",
            "epoch_date_close_approach": 1464075240000,
            "relative_velocity": {
                "kilometers_per_second": "17.0063339452",
                "kilometers_per_hour": "61222.8022025652",
                "miles_per_hour": "38041.4684019217"
            },
            "miss_distance": {
                "astronomical": "0.3979351046",
                "lunar": "154.7967556894",
                "kilometers": "59530244.046387202",
                "miles": "36990378.3837873076"
            },
            "orbiting_body": "Earth"
        }
    ],
    "orbital_data": {
        "orbit_id": "3",
        "orbit_determination_date": "2017-04-06 08:25:23",
        "first_observation_date": "2016-06-08",
        "last_observation_date": "2016-06-11",
        "data_arc_in_days": 3,
        "observations_used": 13,
        "orbit_uncertainty": "9",
        "minimum_orbit_intersection": ".369612",
        "jupiter_tisserand_invariant": "3.919",
        "epoch_osculation": "2457549.5",
        "eccentricity": ".3448923650255993",
        "semi_major_axis": "1.719431602160097",
        "inclination": "34.16734857832687",
        "ascending_node_longitude": "255.9473085356547",
        "orbital_period": "823.5230961616747",
        "perihelion_distance": "1.126412770391346",
        "perihelion_argument": "276.9351133496361",
        "aphelion_distance": "2.312450433928849",
        "perihelion_time": "2457443.383387226969",
        "mean_anomaly": "46.3884750486601",
        "mean_motion": ".4371462095937677",
        "equinox": "J2000",
        "orbit_class": {
            "orbit_class_type": "AMO",
            "orbit_class_description": "Near-Earth asteroid orbits similar to that of 1221 Amor",
            "orbit_class_range": "1.017 AU < q (perihelion) < 1.3 AU"
        }
    },
    "is_sentry_object": false
}